OBJECT_NAME,OBJECT_ID,EPOCH,MEAN_MOTION,ECCENTRICITY,INCLINATION,RA_OF_ASC_NODE,ARG_OF_PERICENTER,MEAN_ANOMALY,EPHEMERIS_TYPE,CLASSIFICATION_TYPE,NORAD_CAT_ID,ELEMENT_SET_NO,REV_AT_EPOCH,BSTAR,MEAN_MOTION_DOT,MEAN_MOTION_DDOT
STARLINK-30367,2023-134W,2025-02-08T16:05:41.924832,15.02555000,.0001452,43.0004,178.2305,265.4782,94.5895,0,U,57791,999,8005,.75393E-3,.1E-3,0
TIANQI-21,2023-135A,2025-02-08T18:32:59.908704,14.22708721,.0013515,49.9718,67.8063,332.7015,27.3185,0,U,57792,999,7437,.2796E-3,.472E-5,0
TIANQI-22,2023-135B,2025-02-08T16:28:50.536992,14.22704012,.0013185,49.9683,68.5362,335.2489,24.7789,0,U,57793,999,7435,.42312E-3,.796E-5,0
TIANQI-23,2023-135C,2025-02-08T19:00:00.579168,14.22703544,.0014124,49.9729,67.9419,335.1789,24.8442,0,U,57794,999,7437,.26854E-3,.447E-5,0
TIANQI-24,2023-135D,2025-02-08T19:28:08.925024,14.22711919,.0013774,49.9738,68.0854,337.0185,23.0109,0,U,57795,999,7437,.38062E-3,.7E-5,0
YAOGAN-33 03,2023-136A,2025-02-08T20:04:07.498560,14.58990120,.0004282,98.1817,326.2230,278.7803,81.2912,0,U,57797,999,7600,.2904E-3,.1317E-4,0
XRISM,2023-137A,2025-02-08T02:37:54.837408,15.06041483,.0008445,31.0029,305.4856,32.5148,327.6008,0,U,57800,999,7814,.57732E-3,.8727E-4,0
STARLINK-30304,2023-138A,2025-02-08T06:10:14.101824,15.40706373,.0000553,43.0021,134.5223,224.4296,135.6516,0,U,57808,999,8031,.31626E-4,.1019E-4,0
STARLINK-30374,2023-138B,2025-02-08T18:04:16.536288,15.02551050,.0000757,43.0017,216.9662,278.4886,81.5870,0,U,57809,999,7945,.10649E-3,.1236E-4,0
STARLINK-30394,2023-138C,2025-02-08T13:12:17.628192,15.02535366,.0001188,43.0013,218.0253,268.2429,91.8277,0,U,57810,999,7932,.26327E-4,.152E-5,0
STARLINK-30379,2023-138D,2025-02-08T13:07:29.701056,15.02539697,.0001142,43.0015,218.0005,274.6126,85.4586,0,U,57811,999,7942,.7823E-4,.853E-5,0
STARLINK-30395,2023-138E,2025-02-08T13:02:40.553088,15.02562224,.0001782,43.0027,217.9762,274.8865,85.1774,0,U,57812,999,7941,.16489E-3,.2026E-4,0
STARLINK-30403,2023-138F,2025-02-08T12:57:54.258912,15.02538131,.000113,43.0017,217.9510,273.8510,86.2203,0,U,57813,999,7932,.116E-3,.1364E-4,0
STARLINK-30413,2023-138G,2025-02-08T12:29:08.435328,15.02536855,.0001183,43.0022,217.8044,276.1001,83.9707,0,U,57814,999,7942,.13138E-4,-.26E-6,0
STARLINK-30398,2023-138H,2025-02-08T12:53:06.394848,15.02536487,.0001296,43.0028,217.9245,275.1020,84.9674,0,U,57815,999,7931,.15404E-3,.1878E-4,0
STARLINK-30386,2023-138J,2025-02-08T19:11:14.274528,15.02531674,.0001251,43.0005,216.4539,270.0012,90.0687,0,U,57816,999,7918,.50036E-4,.472E-5,0
STARLINK-30391,2023-138K,2025-02-08T19:06:26.481312,15.02531236,.0001116,43.0016,216.4293,273.0282,87.0432,0,U,57817,999,7945,-.28533E-4,-.589E-5,0
STARLINK-30401,2023-138L,2025-02-08T12:38:43.855008,15.02534412,.0000999,43.0027,217.8495,269.2662,90.8066,0,U,57818,999,7932,.8174E-4,.901E-5,0
STARLINK-30390,2023-138M,2025-02-08T18:56:50.960544,15.02537605,.0001332,43.0022,216.3791,271.3437,88.7252,0,U,57819,999,7939,.10316E-3,.119E-4,0
STARLINK-30409,2023-138N,2025-02-08T12:14:45.098016,15.02541301,.0000895,43.0008,217.7056,254.9096,105.1648,0,U,57820,999,7936,-.46203E-3,-.644E-4,0
STARLINK-30415,2023-138P,2025-02-08T12:21:09.084672,15.02533445,.0001515,43.0032,217.7592,269.4608,90.6061,0,U,57821,999,7942,.2483E-4,.132E-5,0
STARLINK-30407,2023-138R,2025-02-08T10:55:39.631584,15.26137738,.0002372,43.0008,195.1879,304.9435,55.1193,0,U,57823,999,7967,.12818E-2,.33658E-3,0
STARLINK-30408,2023-138S,2025-02-08T12:19:32.833344,15.02535756,.0001714,43.0035,217.7484,269.1677,90.8969,0,U,57824,999,7941,.12437E-4,-.36E-6,0
STARLINK-30377,2023-138T,2025-02-08T18:18:29.183328,15.02535675,.0001287,43.0033,216.1830,263.7928,96.2767,0,U,57825,999,7935,.43535E-5,-.145E-5,0
STARLINK-30422,2023-138U,2025-02-08T18:23:17.469024,15.02527432,.0001167,43.0047,216.2051,274.7922,85.2787,0,U,57826,999,7945,-.13258E-3,-.1994E-4,0
STARLINK-30402,2023-138V,2025-02-08T20:05:24.264096,15.02537889,.0001431,43.0021,215.8734,245.2107,114.8586,0,U,57827,999,7946,.51616E-4,.494E-5,0
STARLINK-30411,2023-138W,2025-02-08T12:09:57.486240,15.02537890,.0001071,43.0009,217.6785,255.6455,104.4268,0,U,57828,999,7935,-.29291E-4,-.599E-5,0
STARLINK-30418,2023-138X,2025-02-08T18:13:41.630304,15.02542727,.000108,43.0040,216.1531,242.3749,117.6984,0,U,57829,999,7929,-.3883E-5,-.256E-5,0
YAOGAN-40 01A,2023-139A,2025-02-08T20:24:17.512416,14.12282436,.000179,85.9927,121.3316,96.3752,263.7635,0,U,57830,999,7306,.12822E-3,.255E-5,0
YAOGAN-40 01B,2023-139C,2025-02-08T18:42:30.062304,14.12284007,.0001845,85.9925,121.3523,107.7297,252.4088,0,U,57832,999,7306,.18842E-3,.365E-5,0
