STARLINK-30367          
1 57791U 23134W   25039.67062413  .00010000  00000+0  75393-3 0  9990
2 57791  43.0004 178.2305 0001452 265.4782  94.5895 15.02555000 80050
TIANQI-21               
1 57792U 23135A   25039.77291561  .00000472  00000+0  27960-3 0  9990
2 57792  49.9718  67.8063 0013515 332.7015  27.3185 14.22708721 74377
TIANQI-22               
1 57793U 23135B   25039.68669603  .00000796  00000+0  42312-3 0  9994
2 57793  49.9683  68.5362 0013185 335.2489  24.7789 14.22704012 74353
TIANQI-23               
1 57794U 23135C   25039.79167337  .00000447  00000+0  26854-3 0  9990
2 57794  49.9729  67.9419 0014124 335.1789  24.8442 14.22703544 74375
TIANQI-24               
1 57795U 23135D   25039.81121441  .00000700  00000+0  38062-3 0  9996
2 57795  49.9738  68.0854 0013774 337.0185  23.0109 14.22711919 74378
YAOGAN-33 03            
1 57797U 23136A   25039.83619790  .00001317  00000+0  29040-3 0  9991
2 57797  98.1817 326.2230 0004282 278.7803  81.2912 14.58990120 76005
XRISM                   
1 57800U 23137A   25039.10966247  .00008727  00000+0  57732-3 0  9990
2 57800  31.0029 305.4856 0008445  32.5148 327.6008 15.06041483 78140
STARLINK-30304          
1 57808U 23138A   25039.25710766  .00001019  00000+0  31626-4 0  9990
2 57808  43.0021 134.5223 0000553 224.4296 135.6516 15.40706373 80317
STARLINK-30374          
1 57809U 23138B   25039.75296917  .00001236  00000+0  10649-3 0  9995
2 57809  43.0017 216.9662 0000757 278.4886  81.5870 15.02551050 79458
STARLINK-30394          
1 57810U 23138C   25039.55020403  .00000152  00000+0  26327-4 0  9997
2 57810  43.0013 218.0253 0001188 268.2429  91.8277 15.02535366 79327
STARLINK-30379          
1 57811U 23138D   25039.54687154  .00000853  00000+0  78230-4 0  9997
2 57811  43.0015 218.0005 0001142 274.6126  85.4586 15.02539697 79424
STARLINK-30395          
1 57812U 23138E   25039.54352492  .00002026  00000+0  16489-3 0  9993
2 57812  43.0027 217.9762 0001782 274.8865  85.1774 15.02562224 79415
STARLINK-30403          
1 57813U 23138F   25039.54021133  .00001364  00000+0  11600-3 0  9993
2 57813  43.0017 217.9510 0001130 273.8510  86.2203 15.02538131 79328
STARLINK-30413          
1 57814U 23138G   25039.52023652 -.00000026  00000+0  13138-4 0  9994
2 57814  43.0022 217.8044 0001183 276.1001  83.9707 15.02536855 79420
STARLINK-30398          
1 57815U 23138H   25039.53687957  .00001878  00000+0  15404-3 0  9992
2 57815  43.0028 217.9245 0001296 275.1020  84.9674 15.02536487 79319
STARLINK-30386          
1 57816U 23138J   25039.79947077  .00000472  00000+0  50036-4 0  9993
2 57816  43.0005 216.4539 0001251 270.0012  90.0687 15.02531674 79181
STARLINK-30391          
1 57817U 23138K   25039.79613983 -.00000589  00000+0 -28533-4 0  9998
2 57817  43.0016 216.4293 0001116 273.0282  87.0432 15.02531236 79451
STARLINK-30401          
1 57818U 23138L   25039.52689647  .00000901  00000+0  81740-4 0  9995
2 57818  43.0027 217.8495 0000999 269.2662  90.8066 15.02534412 79320
STARLINK-30390          
1 57819U 23138M   25039.78947871  .00001190  00000+0  10316-3 0  9991
2 57819  43.0022 216.3791 0001332 271.3437  88.7252 15.02537605 79392
STARLINK-30409          
1 57820U 23138N   25039.51024419 -.00006440  00000+0 -46203-3 0  9997
2 57820  43.0008 217.7056 0000895 254.9096 105.1648 15.02541301 79366
STARLINK-30415          
1 57821U 23138P   25039.51468848  .00000132  00000+0  24830-4 0  9999
2 57821  43.0032 217.7592 0001515 269.4608  90.6061 15.02533445 79423
STARLINK-30407          
1 57823U 23138R   25039.45531981  .00033658  00000+0  12818-2 0  9993
2 57823  43.0008 195.1879 0002372 304.9435  55.1193 15.26137738 79670
STARLINK-30408          
1 57824U 23138S   25039.51357446 -.00000036  00000+0  12437-4 0  9997
2 57824  43.0035 217.7484 0001714 269.1677  90.8969 15.02535756 79418
STARLINK-30377          
1 57825U 23138T   25039.76283777 -.00000145  00000+0  43535-5 0  9995
2 57825  43.0033 216.1830 0001287 263.7928  96.2767 15.02535675 79358
STARLINK-30422          
1 57826U 23138U   25039.76617441 -.00001994  00000+0 -13258-3 0  9996
2 57826  43.0047 216.2051 0001167 274.7922  85.2787 15.02527432 79456
STARLINK-30402          
1 57827U 23138V   25039.83708639  .00000494  00000+0  51616-4 0  9998
2 57827  43.0021 215.8734 0001431 245.2107 114.8586 15.02537889 79468
STARLINK-30411          
1 57828U 23138W   25039.50691535 -.00000599  00000+0 -29291-4 0  9991
2 57828  43.0009 217.6785 0001071 255.6455 104.4268 15.02537890 79354
STARLINK-30418          
1 57829U 23138X   25039.75950961 -.00000256  00000+0 -38830-5 0  9990
2 57829  43.0040 216.1531 0001080 242.3749 117.6984 15.02542727 79291
YAOGAN-40 01A           
1 57830U 23139A   25039.85020269  .00000255  00000+0  12822-3 0  9991
2 57830  85.9927 121.3316 0001790  96.3752 263.7635 14.12282436 73062
YAOGAN-40 01B           
1 57832U 23139C   25039.77951461  .00000365  00000+0  18842-3 0  9991
2 57832  85.9925 121.3523 0001845 107.7297 252.4088 14.12284007 73067
